OBJECT_NAME,OBJECT_ID,EPOCH,MEAN_MOTION,ECCENTRICITY,INCLINATION,RA_OF_ASC_NODE,ARG_OF_PERICENTER,MEAN_ANOMALY,EPHEMERIS_TYPE,CLASSIFICATION_TYPE,NORAD_CAT_ID,ELEMENT_SET_NO,REV_AT_EPOCH,BSTAR,MEAN_MOTION_DOT,MEAN_MOTION_DDOT
ONEWEB-0336,2021-083S,2026-06-14T10:33:43.698240,13.13469897,.0002232,87.8950,320.7747,93.4608,266.6777,0,U,49202,999,23055,.16762551E-4,.19E-6,0
ONEWEB-0337,2021-083T,2026-06-14T10:48:09.574848,13.13470361,.00020244,87.8948,320.7787,98.2941,261.8418,0,U,49203,999,23055,-.52608313E-3,-.179E-5,0
ONEWEB-0338,2021-083U,2026-06-14T12:59:14.158176,13.20774138,.00016676,87.9182,274.9762,102.7741,257.3579,0,U,49204,999,23646,.67523524E-4,.4E-6,0
ONEWEB-0339,2021-083V,2026-06-14T11:00:32.223456,13.13471286,.00016332,87.8949,320.7698,103.1542,256.9769,0,U,49205,999,23053,-.8316032E-3,-.291E-5,0
ONEWEB-0340,2021-083W,2026-06-14T11:28:06.199392,13.18685429,.00019726,87.9169,335.9942,91.2439,268.8920,0,U,49206,999,22961,.67966413E-4,.4E-6,0
ONEWEB-0341,2021-083X,2026-06-14T11:37:49.076256,13.18685967,.00021836,87.9162,335.9962,102.7471,257.3905,0,U,49207,999,22963,.8446377E-4,.46E-6,0
ONEWEB-0342,2021-083Y,2026-06-14T13:08:56.106240,13.20771036,.00019411,87.9192,274.9627,102.8777,257.2573,0,U,49208,999,23643,.20412815E-3,.96E-6,0
ONEWEB-0343,2021-083Z,2026-06-14T11:49:57.754848,13.18686742,.00015771,87.9166,335.9933,103.6734,256.4574,0,U,49209,999,22968,.1826611E-3,.85E-6,0
ONEWEB-0344,2021-083AA,2026-06-14T10:53:12.894144,13.13472285,.00021152,87.8940,320.7849,103.6475,256.4890,0,U,49210,999,23053,-.53651286E-3,-.183E-5,0
ONEWEB-0345,2021-083AB,2026-06-14T10:41:01.862880,13.13470781,.00020391,87.8960,320.7672,103.2956,256.8401,0,U,49211,999,23054,-.36837912E-3,-.122E-5,0
ONEWEB-0346,2021-083AC,2026-06-14T11:45:06.110784,13.18686601,.00023877,87.9159,335.9943,81.7337,278.4066,0,U,49212,999,22962,.1488638E-3,.72E-6,0
ONEWEB-0348,2021-083AD,2026-06-14T12:54:23.204448,13.20770763,.00024775,87.9194,274.9686,98.1497,261.9918,0,U,49213,999,23646,-.11464513E-3,-.34E-6,0
ONEWEB-0350,2021-083AE,2026-06-14T11:03:26.341056,13.12943889,.00020852,87.8956,320.7684,100.1251,260.0114,0,U,49214,999,23057,-.92005626E-3,-.321E-5,0
ONEWEB-0351,2021-083AF,2026-06-14T14:33:34.070112,13.20770689,.00019251,87.9195,274.9535,126.4508,233.6803,0,U,49215,999,23643,.23034057E-4,.22E-6,0
ONEWEB-0352,2021-083AG,2026-06-14T10:26:25.197504,13.13470206,.00015932,87.8951,320.7806,108.1821,251.9482,0,U,49216,999,23066,.49619514E-3,.194E-5,0
ONEWEB-0354,2021-083AH,2026-06-14T13:23:28.913856,13.20773213,.00023974,87.9195,274.9623,101.3585,258.7818,0,U,49217,999,23646,.4050829E-3,.178E-5,0
ONEWEB-0355,2021-083AJ,2026-06-14T11:08:03.376608,13.13470143,.0001848,87.8947,320.7763,103.6895,256.4440,0,U,49218,999,23054,-.72439156E-3,-.252E-5,0
ONEWEB-0357,2021-083AK,2026-06-14T13:18:37.945440,13.20772856,.00019295,87.9193,274.9571,106.3728,253.7617,0,U,49219,999,23646,.36347479E-3,.161E-5,0
ONEWEB-0332,2021-090A,2026-06-14T15:08:05.766720,13.14502589,.0001715,87.8959,290.2185,100.0039,260.1284,0,U,49279,999,22724,.37269099E-3,.151E-5,0
ONEWEB-0347,2021-090B,2026-06-14T07:36:49.073760,13.20771205,.00017307,87.9192,275.0125,98.9097,261.2232,0,U,49280,999,23066,.2565854E-3,.117E-5,0
ONEWEB-0349,2021-090C,2026-06-14T13:50:09.151584,13.20772091,.00020036,87.9195,274.9615,101.4155,258.7204,0,U,49281,999,22948,.21850888E-3,.102E-5,0
ONEWEB-0353,2021-090D,2026-06-14T09:27:52.000704,13.14503319,.0001642,87.8962,290.2613,98.7283,261.4032,0,U,49282,999,22721,.97637205E-4,.49E-6,0
ONEWEB-0356,2021-090E,2026-06-14T13:47:43.171008,13.20773237,.00021523,87.9195,274.9551,78.3729,281.7645,0,U,49283,999,22948,.17273234E-3,.83E-6,0
ONEWEB-0358,2021-090F,2026-06-14T14:33:37.186560,13.20237458,.00021167,87.9195,274.9536,95.9938,264.1437,0,U,49284,999,23021,-.15773028E-4,.7E-7,0
ONEWEB-0359,2021-090G,2026-06-14T14:26:30.366240,13.20773128,.00022528,87.9193,274.9496,100.1398,259.9990,0,U,49285,999,23019,-.83222311E-4,-.21E-6,0
ONEWEB-0360,2021-090H,2026-06-14T14:11:56.799168,13.20782890,.00020999,87.9194,274.9578,102.4560,257.6809,0,U,49286,999,22950,.26601527E-2,.1095E-4,0
ONEWEB-0361,2021-090J,2026-06-14T13:45:17.522208,13.20770750,.00021012,87.9195,274.9599,98.7069,261.4302,0,U,49287,999,22995,.55753791E-4,.36E-6,0
ONEWEB-0362,2021-090K,2026-06-14T08:55:40.936512,13.19724862,.00018871,87.9167,305.5388,106.7940,253.3400,0,U,49288,999,22654,.6248801E-5,.15E-6,0
ONEWEB-0363,2021-090L,2026-06-14T14:07:06.271392,13.20770256,.00020713,87.9194,274.9571,91.4151,268.7220,0,U,49289,999,22996,-.26831257E-4,.2E-7,0
ONEWEB-0364,2021-090M,2026-06-14T13:13:46.767072,13.20771544,.00020059,87.9191,274.9724,100.9476,259.1883,0,U,49290,999,23109,.16392732E-3,.8E-6,0
